[{"OBJECT_NAME":"MONITOR-3 (RS58S)","OBJECT_ID":"2023-091Q","EPOCH":"2026-03-09T23:24:02.583360","MEAN_MOTION":15.25747617,"ECCENTRICITY":0.0013676,"INCLINATION":97.5199,"RA_OF_ASC_NODE":131.7909,"ARG_OF_PERICENTER":91.0881,"MEAN_ANOMALY":269.1924,"EPHEMERIS_TYPE":0,"CLASSIFICATION_TYPE":"U","NORAD_CAT_ID":57180,"ELEMENT_SET_NO":999,"REV_AT_EPOCH":14915,"BSTAR":0.00054974842,"MEAN_MOTION_DOT":0.00014004,"MEAN_MOTION_DDOT":0},{"OBJECT_NAME":"STARLINK-36143","OBJECT_ID":"2025-294AC","EPOCH":"2026-03-09T07:35:34.890720","MEAN_MOTION":15.27577073,"ECCENTRICITY":0.00015423,"INCLINATION":43.0039,"RA_OF_ASC_NODE":40.049,"ARG_OF_PERICENTER":252.6337,"MEAN_ANOMALY":107.4346,"EPHEMERIS_TYPE":0,"CLASSIFICATION_TYPE":"U","NORAD_CAT_ID":67056,"ELEMENT_SET_NO":999,"REV_AT_EPOCH":1474,"BSTAR":0.00065286204,"MEAN_MOTION_DOT":0.00017745,"MEAN_MOTION_DDOT":0}]
